{"fetched_at":"2026-03-29T16:36:15Z","count":15609,"tles":[{"name":"BEE-1000","line1":"1 66650U 25274A   26087.77969579  .00003020  00000+0  29958-3 0  9995","line2":"2 66650  97.7451  18.1168 0010278 261.4570  98.5485 14.92474060 18214","category":"Other"}]}