{
  "norad_id": 66650,
  "name": "BEE-1000",
  "history": [
    {
      "epoch": "2026-03-28T18:42:45.716256",
      "apogee_km": 597.3864479428103,
      "perigee_km": 583.061727422084,
      "latitude_deg": 8.323836941201598,
      "longitude_deg": -160.1492041600868,
      "semi_major_axis_km": 6968.361087682447,
      "eccentricity": 0.00102784,
      "inclination_deg": 97.7451,
      "raan_deg": 18.1168,
      "arg_perigee_deg": 261.457,
      "mean_anomaly_deg": 98.5485,
      "mean_motion_rev_day": 14.9247406
    }
  ]
}